<?xml version="1.0" encoding="UTF-8"?>
<ndm xmlns:xsi="http://www.w3.org/2001/XMLSchema-instance" xsi:noNamespaceSchemaLocation="https://sanaregistry.org/r/ndmxml_unqualified/ndmxml-2.0.0-master-2.0.xsd">
<omm id="CCSDS_OMM_VERS" version="2.0">
<header><CREATION_DATE/><ORIGINATOR/></header><body><segment><metadata><OBJECT_NAME>KUIPER-00176</OBJECT_NAME><OBJECT_ID>2025-217AC</OBJECT_ID><CENTER_NAME>EARTH</CENTER_NAME><REF_FRAME>TEME</REF_FRAME><TIME_SYSTEM>UTC</TIME_SYSTEM><MEAN_ELEMENT_THEORY>SGP4</MEAN_ELEMENT_THEORY></metadata><data><meanElements><EPOCH>2025-10-31T00:00:02.000160</EPOCH><MEAN_MOTION>15.37550414</MEAN_MOTION><ECCENTRICITY>.00025271</ECCENTRICITY><INCLINATION>51.8707</INCLINATION><RA_OF_ASC_NODE>270.8950</RA_OF_ASC_NODE><ARG_OF_PERICENTER>112.1577</ARG_OF_PERICENTER><MEAN_ANOMALY>203.7995</MEAN_ANOMALY></meanElements><tleParameters><EPHEMERIS_TYPE>0</EPHEMERIS_TYPE><CLASSIFICATION_TYPE>U</CLASSIFICATION_TYPE><NORAD_CAT_ID>65788</NORAD_CAT_ID><ELEMENT_SET_NO>999</ELEMENT_SET_NO><REV_AT_EPOCH>504</REV_AT_EPOCH><BSTAR>.8772345E-3</BSTAR><MEAN_MOTION_DOT>.32578E-3</MEAN_MOTION_DOT><MEAN_MOTION_DDOT>0</MEAN_MOTION_DDOT></tleParameters></data></segment></body></omm>
<omm id="CCSDS_OMM_VERS" version="2.0">
<header><CREATION_DATE/><ORIGINATOR/></header><body><segment><metadata><OBJECT_NAME>KUIPER-00101</OBJECT_NAME><OBJECT_ID>2025-228A</OBJECT_ID><CENTER_NAME>EARTH</CENTER_NAME><REF_FRAME>TEME</REF_FRAME><TIME_SYSTEM>UTC</TIME_SYSTEM><MEAN_ELEMENT_THEORY>SGP4</MEAN_ELEMENT_THEORY></metadata><data><meanElements><EPOCH>2025-10-31T04:57:10.699776</EPOCH><MEAN_MOTION>15.34745638</MEAN_MOTION><ECCENTRICITY>.00063234</ECCENTRICITY><INCLINATION>51.8781</INCLINATION><RA_OF_ASC_NODE>225.4753</RA_OF_ASC_NODE><ARG_OF_PERICENTER>193.2351</ARG_OF_PERICENTER><MEAN_ANOMALY>166.8470</MEAN_ANOMALY></meanElements><tleParameters><EPHEMERIS_TYPE>0</EPHEMERIS_TYPE><CLASSIFICATION_TYPE>U</CLASSIFICATION_TYPE><NORAD_CAT_ID>65947</NORAD_CAT_ID><ELEMENT_SET_NO>999</ELEMENT_SET_NO><REV_AT_EPOCH>388</REV_AT_EPOCH><BSTAR>.12429629E-2</BSTAR><MEAN_MOTION_DOT>.42383E-3</MEAN_MOTION_DOT><MEAN_MOTION_DDOT>0</MEAN_MOTION_DDOT></tleParameters></data></segment></body></omm>
<omm id="CCSDS_OMM_VERS" version="2.0">
<header><CREATION_DATE/><ORIGINATOR/></header><body><segment><metadata><OBJECT_NAME>KUIPER-00113</OBJECT_NAME><OBJECT_ID>2025-228B</OBJECT_ID><CENTER_NAME>EARTH</CENTER_NAME><REF_FRAME>TEME</REF_FRAME><TIME_SYSTEM>UTC</TIME_SYSTEM><MEAN_ELEMENT_THEORY>SGP4</MEAN_ELEMENT_THEORY></metadata><data><meanElements><EPOCH>2025-10-31T06:26:49.197408</EPOCH><MEAN_MOTION>15.34997496</MEAN_MOTION><ECCENTRICITY>.00064966</ECCENTRICITY><INCLINATION>51.8790</INCLINATION><RA_OF_ASC_NODE>225.1472</RA_OF_ASC_NODE><ARG_OF_PERICENTER>190.8139</ARG_OF_PERICENTER><MEAN_ANOMALY>169.2709</MEAN_ANOMALY></meanElements><tleParameters><EPHEMERIS_TYPE>0</EPHEMERIS_TYPE><CLASSIFICATION_TYPE>U</CLASSIFICATION_TYPE><NORAD_CAT_ID>65948</NORAD_CAT_ID><ELEMENT_SET_NO>999</ELEMENT_SET_NO><REV_AT_EPOCH>389</REV_AT_EPOCH><BSTAR>.9890867E-3</BSTAR><MEAN_MOTION_DOT>.33884E-3</MEAN_MOTION_DOT><MEAN_MOTION_DDOT>0</MEAN_MOTION_DDOT></tleParameters></data></segment></body></omm>
<omm id="CCSDS_OMM_VERS" version="2.0">
<header><CREATION_DATE/><ORIGINATOR/></header><body><segment><metadata><OBJECT_NAME>KUIPER-00117</OBJECT_NAME><OBJECT_ID>2025-228C</OBJECT_ID><CENTER_NAME>EARTH</CENTER_NAME><REF_FRAME>TEME</REF_FRAME><TIME_SYSTEM>UTC</TIME_SYSTEM><MEAN_ELEMENT_THEORY>SGP4</MEAN_ELEMENT_THEORY></metadata><data><meanElements><EPOCH>2025-10-31T04:53:44.690208</EPOCH><MEAN_MOTION>15.34947354</MEAN_MOTION><ECCENTRICITY>.00061421</ECCENTRICITY><INCLINATION>51.8789</INCLINATION><RA_OF_ASC_NODE>225.4638</RA_OF_ASC_NODE><ARG_OF_PERICENTER>192.8992</ARG_OF_PERICENTER><MEAN_ANOMALY>167.1838</MEAN_ANOMALY></meanElements><tleParameters><EPHEMERIS_TYPE>0</EPHEMERIS_TYPE><CLASSIFICATION_TYPE>U</CLASSIFICATION_TYPE><NORAD_CAT_ID>65949</NORAD_CAT_ID><ELEMENT_SET_NO>999</ELEMENT_SET_NO><REV_AT_EPOCH>388</REV_AT_EPOCH><BSTAR>.11776479E-2</BSTAR><MEAN_MOTION_DOT>.40384E-3</MEAN_MOTION_DOT><MEAN_MOTION_DDOT>0</MEAN_MOTION_DDOT></tleParameters></data></segment></body></omm>
<omm id="CCSDS_OMM_VERS" version="2.0">
<header><CREATION_DATE/><ORIGINATOR/></header><body><segment><metadata><OBJECT_NAME>KUIPER-00121</OBJECT_NAME><OBJECT_ID>2025-228D</OBJECT_ID><CENTER_NAME>EARTH</CENTER_NAME><REF_FRAME>TEME</REF_FRAME><TIME_SYSTEM>UTC</TIME_SYSTEM><MEAN_ELEMENT_THEORY>SGP4</MEAN_ELEMENT_THEORY></metadata><data><meanElements><EPOCH>2025-10-31T06:37:14.283264</EPOCH><MEAN_MOTION>15.34367132</MEAN_MOTION><ECCENTRICITY>.00056043</ECCENTRICITY><INCLINATION>51.8795</INCLINATION><RA_OF_ASC_NODE>225.1977</RA_OF_ASC_NODE><ARG_OF_PERICENTER>209.1835</ARG_OF_PERICENTER><MEAN_ANOMALY>150.8838</MEAN_ANOMALY></meanElements><tleParameters><EPHEMERIS_TYPE>0</EPHEMERIS_TYPE><CLASSIFICATION_TYPE>U</CLASSIFICATION_TYPE><NORAD_CAT_ID>65950</NORAD_CAT_ID><ELEMENT_SET_NO>999</ELEMENT_SET_NO><REV_AT_EPOCH>389</REV_AT_EPOCH><BSTAR>.99319408E-3</BSTAR><MEAN_MOTION_DOT>.33337E-3</MEAN_MOTION_DOT><MEAN_MOTION_DDOT>0</MEAN_MOTION_DDOT></tleParameters></data></segment></body></omm>
<omm id="CCSDS_OMM_VERS" version="2.0">
<header><CREATION_DATE/><ORIGINATOR/></header><body><segment><metadata><OBJECT_NAME>KUIPER-00122</OBJECT_NAME><OBJECT_ID>2025-228E</OBJECT_ID><CENTER_NAME>EARTH</CENTER_NAME><REF_FRAME>TEME</REF_FRAME><TIME_SYSTEM>UTC</TIME_SYSTEM><MEAN_ELEMENT_THEORY>SGP4</MEAN_ELEMENT_THEORY></metadata><data><meanElements><EPOCH>2025-10-31T05:05:25.442592</EPOCH><MEAN_MOTION>15.34220986</MEAN_MOTION><ECCENTRICITY>.00058964</ECCENTRICITY><INCLINATION>51.8782</INCLINATION><RA_OF_ASC_NODE>225.5131</RA_OF_ASC_NODE><ARG_OF_PERICENTER>214.5804</ARG_OF_PERICENTER><MEAN_ANOMALY>145.4799</MEAN_ANOMALY></meanElements><tleParameters><EPHEMERIS_TYPE>0</EPHEMERIS_TYPE><CLASSIFICATION_TYPE>U</CLASSIFICATION_TYPE><NORAD_CAT_ID>65951</NORAD_CAT_ID><ELEMENT_SET_NO>999</ELEMENT_SET_NO><REV_AT_EPOCH>388</REV_AT_EPOCH><BSTAR>.10954224E-2</BSTAR><MEAN_MOTION_DOT>.36654E-3</MEAN_MOTION_DOT><MEAN_MOTION_DDOT>0</MEAN_MOTION_DDOT></tleParameters></data></segment></body></omm>
<omm id="CCSDS_OMM_VERS" version="2.0">
<header><CREATION_DATE/><ORIGINATOR/></header><body><segment><metadata><OBJECT_NAME>KUIPER-00123</OBJECT_NAME><OBJECT_ID>2025-228F</OBJECT_ID><CENTER_NAME>EARTH</CENTER_NAME><REF_FRAME>TEME</REF_FRAME><TIME_SYSTEM>UTC</TIME_SYSTEM><MEAN_ELEMENT_THEORY>SGP4</MEAN_ELEMENT_THEORY></metadata><data><meanElements><EPOCH>2025-10-31T05:04:10.210656</EPOCH><MEAN_MOTION>15.33615159</MEAN_MOTION><ECCENTRICITY>.00061</ECCENTRICITY><INCLINATION>51.8779</INCLINATION><RA_OF_ASC_NODE>225.5054</RA_OF_ASC_NODE><ARG_OF_PERICENTER>189.9909</ARG_OF_PERICENTER><MEAN_ANOMALY>170.0956</MEAN_ANOMALY></meanElements><tleParameters><EPHEMERIS_TYPE>0</EPHEMERIS_TYPE><CLASSIFICATION_TYPE>U</CLASSIFICATION_TYPE><NORAD_CAT_ID>65952</NORAD_CAT_ID><ELEMENT_SET_NO>999</ELEMENT_SET_NO><REV_AT_EPOCH>388</REV_AT_EPOCH><BSTAR>-.87498178E-2</BSTAR><MEAN_MOTION_DOT>-.278826E-2</MEAN_MOTION_DOT><MEAN_MOTION_DDOT>0</MEAN_MOTION_DDOT></tleParameters></data></segment></body></omm>
<omm id="CCSDS_OMM_VERS" version="2.0">
<header><CREATION_DATE/><ORIGINATOR/></header><body><segment><metadata><OBJECT_NAME>KUIPER-00124</OBJECT_NAME><OBJECT_ID>2025-228G</OBJECT_ID><CENTER_NAME>EARTH</CENTER_NAME><REF_FRAME>TEME</REF_FRAME><TIME_SYSTEM>UTC</TIME_SYSTEM><MEAN_ELEMENT_THEORY>SGP4</MEAN_ELEMENT_THEORY></metadata><data><meanElements><EPOCH>2025-10-31T06:39:58.286016</EPOCH><MEAN_MOTION>15.34187574</MEAN_MOTION><ECCENTRICITY>.00052393</ECCENTRICITY><INCLINATION>51.8793</INCLINATION><RA_OF_ASC_NODE>225.2076</RA_OF_ASC_NODE><ARG_OF_PERICENTER>219.3921</ARG_OF_PERICENTER><MEAN_ANOMALY>140.6684</MEAN_ANOMALY></meanElements><tleParameters><EPHEMERIS_TYPE>0</EPHEMERIS_TYPE><CLASSIFICATION_TYPE>U</CLASSIFICATION_TYPE><NORAD_CAT_ID>65953</NORAD_CAT_ID><ELEMENT_SET_NO>999</ELEMENT_SET_NO><REV_AT_EPOCH>389</REV_AT_EPOCH><BSTAR>.11595388E-2</BSTAR><MEAN_MOTION_DOT>.38787E-3</MEAN_MOTION_DOT><MEAN_MOTION_DDOT>0</MEAN_MOTION_DDOT></tleParameters></data></segment></body></omm>

</ndm>
