KUIPER-00176            
1 65788U 25217AC  25304.00002315  .00032578  00000+0  87723-3 0  9990
2 65788  51.8707 270.8950 0002527 112.1577 203.7995 15.37550414  5044
KUIPER-00101            
1 65947U 25228A   25304.20637384  .00042383  00000+0  12430-2 0  9998
2 65947  51.8781 225.4753 0006323 193.2351 166.8470 15.34745638  3886
KUIPER-00113            
1 65948U 25228B   25304.26862497  .00033884  00000+0  98909-3 0  9992
2 65948  51.8790 225.1472 0006496 190.8139 169.2709 15.34997496  3894
KUIPER-00117            
1 65949U 25228C   25304.20398947  .00040384  00000+0  11776-2 0  9990
2 65949  51.8789 225.4638 0006142 192.8992 167.1838 15.34947354  3884
KUIPER-00121            
1 65950U 25228D   25304.27585976  .00033337  00000+0  99319-3 0  9999
2 65950  51.8795 225.1977 0005604 209.1835 150.8838 15.34367132  3896
KUIPER-00122            
1 65951U 25228E   25304.21210003  .00036654  00000+0  10954-2 0  9992
2 65951  51.8782 225.5131 0005896 214.5804 145.4799 15.34220986  3888
KUIPER-00123            
1 65952U 25228F   25304.21122929 -.00278826  00000+0 -87498-2 0  9990
2 65952  51.8779 225.5054 0006100 189.9909 170.0956 15.33615159  3887
KUIPER-00124            
1 65953U 25228G   25304.27775794  .00038787  00000+0  11595-2 0  9994
2 65953  51.8793 225.2076 0005239 219.3921 140.6684 15.34187574  3897
